STARLINK-31475          
1 59310U 24056Q   26068.44160918  .00000323  00000+0  21269-4 0  9991
2 59310  43.0040 228.8918 0001383 247.8741 112.1964 15.27574143111272
LIZZIESAT-2 (LS-2)      
1 62383U 24247G   26068.49140277  .00009388  00000+0  34517-3 0  9997
2 62383  44.9909 117.0823 0004092 327.5136  32.5495 15.28222796 67716
